ONEWEB-0589             
1 54655U 22166P   25124.51173134  .00000037  00000+0  57194-4 0  9990
2 54655  87.9254 325.4941 0002576  75.5729 284.5690 13.21824956118022
ONEWEB-0590             
1 54656U 22166Q   25123.85397196  .00000048  00000+0  85247-4 0  9995
2 54656  87.9243 325.6123 0002161  98.6843 261.4536 13.21829022117456
ONEWEB-0591             
1 54657U 22166R   25124.09382477 -.00000007  00000+0 -47907-4 0  9997
2 54657  87.9255 325.5781 0001965  86.2811 273.8548 13.21826164117979
ONEWEB-0592             
1 54658U 22166S   25124.09697556 -.00000050  00000+0 -15174-3 0  9993
2 54658  87.9251 325.5313 0001996  87.7620 272.3743 13.21825595117861
ONEWEB-0593             
1 54659U 22166T   25124.12063505  .00000014  00000+0  16551-5 0  9999
2 54659  87.9253 325.5633 0002017  84.8359 275.3005 13.21826412117976
ONEWEB-0594             
1 54660U 22166U   25124.51803632  .00000074  00000+0  14847-3 0  9997
2 54660  87.9257 325.4954 0001764  86.7454 273.3882 13.21826545118038
ONEWEB-0595             
1 54661U 22166V   25124.11747514  .00000070  00000+0  13767-3 0  9996
2 54661  87.9256 325.5548 0001746  93.5987 266.5347 13.21825569117961
ONEWEB-0596             
1 54662U 22166W   25124.09066264 -.00000055  00000+0 -16366-3 0  9993
2 54662  87.9259 325.5718 0001884  90.8381 269.2969 13.21825576117963
